{"type":"FeatureCollection","features":[{"type":"Feature","properties":{"id":"drain_0","name":"Drain Network 01"},"geometry":{"type":"LineString","coordinates":[[77.025,28.435],[77.028,28.436],[77.031,28.437],[77.034,28.438]]}},{"type":"Feature","properties":{"id":"drain_1","name":"Drain Network 11"},"geometry":{"type":"LineString","coordinates":[[77.04,28.44],[77.042,28.442],[77.044,28.444],[77.046,28.446]]}},{"type":"Feature","properties":{"id":"drain_2","name":"Drain Network 21"},"geometry":{"type":"LineString","coordinates":[[77.06,28.43],[77.062,28.432],[77.064,28.434],[77.066,28.436]]}}]}