{"type":"FeatureCollection","features":[{"type":"Feature","properties":{"name":"Sector 14","id":"sector_0"},"geometry":{"type":"Polygon","coordinates":[[[77.02,28.47],[77.04,28.47],[77.04,28.45],[77.02,28.45],[77.02,28.47]]]}},{"type":"Feature","properties":{"name":"Sector 29","id":"sector_1"},"geometry":{"type":"Polygon","coordinates":[[[77.05,28.46],[77.07,28.46],[77.07,28.44],[77.05,28.44],[77.05,28.46]]]}},{"type":"Feature","properties":{"name":"Sector 33","id":"sector_2"},"geometry":{"type":"Polygon","coordinates":[[[77.02,28.44],[77.04,28.44],[77.04,28.42],[77.02,28.42],[77.02,28.44]]]}},{"type":"Feature","properties":{"name":"Sector 56","id":"sector_3"},"geometry":{"type":"Polygon","coordinates":[[[77.08,28.43],[77.1,28.43],[77.1,28.41],[77.08,28.41],[77.08,28.43]]]}}]}